start=new Date('2021-11-20T00:00:00.000Z').valueOf();
sats=[{"PERIAPSIS":"263.131","TLE_LINE2":"2 49455  53.2175 103.8157 0047688  59.9590 324.0670 15.92621089  1597","RCS_SIZE":null,"DECAY_DATE":null,"ECCENTRICITY":"0.00476880","OBJECT_TYPE":"PAYLOAD","MEAN_ELEMENT_THEORY":"SGP4","MEAN_MOTION":"15.92621089","REF_FRAME":"TEME","MEAN_MOTION_DDOT":"0.0002446200000","EPOCH":"2021-11-19T14:00:01.000224","PERIOD":"90.417","GP_ID":"190076873","SEMIMAJOR_AXIS":"6673.088","NORAD_CAT_ID":"49455","ELEMENT_SET_NO":"999","TIME_SYSTEM":"UTC","APOAPSIS":"326.776","CLASSIFICATION_TYPE":"U","OBJECT_NAME":"STARLINK-3145","RA_OF_ASC_NODE":"103.8157","MEAN_MOTION_DOT":"-0.00880402","OBJECT_ID":"2021-104AZ","ARG_OF_PERICENTER":"59.9590","REV_AT_EPOCH":"159","FILE":"3219209","LAUNCH_DATE":"2021-11-13","COUNTRY_CODE":"US","MEAN_ANOMALY":"324.0670","EPHEMERIS_TYPE":"0","BSTAR":"-0.00224110000000","CENTER_NAME":"EARTH","SITE":"AFETR","TLE_LINE1":"1 49455U 21104AZ  21323.58334491 -.00880402  24462-3 -22411-2 0  9990","INCLINATION":"53.2175"},{"SEMIMAJOR_AXIS":"6673.177","NORAD_CAT_ID":"49456","TIME_SYSTEM":"UTC","ELEMENT_SET_NO":"999","APOAPSIS":"326.413","CLASSIFICATION_TYPE":"U","OBJECT_NAME":"STARLINK-3124","MEAN_MOTION_DOT":"-0.00880815","RA_OF_ASC_NODE":"103.8164","ARG_OF_PERICENTER":"59.2319","OBJECT_ID":"2021-104BA","FILE":"3219002","REV_AT_EPOCH":"221","BSTAR":"-0.00225310000000","EPHEMERIS_TYPE":"0","LAUNCH_DATE":"2021-11-13","COUNTRY_CODE":"US","MEAN_ANOMALY":"324.1884","CENTER_NAME":"EARTH","TLE_LINE1":"1 49456U 21104BA  21323.58334491 -.00880815  24475-3 -22531-2 0  9996","SITE":"AFETR","INCLINATION":"53.2175","TLE_LINE2":"2 49456  53.2175 103.8164 0047011  59.2319 324.1884 15.92589455  2216","PERIAPSIS":"263.670","RCS_SIZE":null,"DECAY_DATE":null,"ECCENTRICITY":"0.00470110","REF_FRAME":"TEME","MEAN_MOTION":"15.92589455","MEAN_ELEMENT_THEORY":"SGP4","OBJECT_TYPE":"PAYLOAD","EPOCH":"2021-11-19T14:00:01.000224","MEAN_MOTION_DDOT":"0.0002447500000","PERIOD":"90.419","GP_ID":"190047904"},{"MEAN_MOTION_DOT":"-0.00880197","RA_OF_ASC_NODE":"103.8153","APOAPSIS":"326.110","CLASSIFICATION_TYPE":"U","OBJECT_NAME":"STARLINK-3132","TIME_SYSTEM":"UTC","ELEMENT_SET_NO":"999","SEMIMAJOR_AXIS":"6673.041","NORAD_CAT_ID":"49457","TLE_LINE1":"1 49457U 21104BB  21323.58334491 -.00880197  24456-3 -22481-2 0  9993","SITE":"AFETR","INCLINATION":"53.2175","CENTER_NAME":"EARTH","BSTAR":"-0.00224810000000","EPHEMERIS_TYPE":"0","MEAN_ANOMALY":"325.1703","LAUNCH_DATE":"2021-11-13","COUNTRY_CODE":"US","ARG_OF_PERICENTER":"59.1214","OBJECT_ID":"2021-104BB","FILE":"3219003","REV_AT_EPOCH":"221","DECAY_DATE":null,"RCS_SIZE":null,"PERIAPSIS":"263.703","TLE_LINE2":"2 49457  53.2175 103.8153 0046761  59.1214 325.1703 15.92637823  2213","PERIOD":"90.416","GP_ID":"190047839","MEAN_MOTION":"15.92637823","REF_FRAME":"TEME","MEAN_ELEMENT_THEORY":"SGP4","OBJECT_TYPE":"PAYLOAD","EPOCH":"2021-11-19T14:00:01.000224","MEAN_MOTION_DDOT":"0.0002445600000","ECCENTRICITY":"0.00467610"},{"NORAD_CAT_ID":"49458","SEMIMAJOR_AXIS":"6673.133","ELEMENT_SET_NO":"999","TIME_SYSTEM":"UTC","OBJECT_NAME":"STARLINK-3156","CLASSIFICATION_TYPE":"U","APOAPSIS":"326.731","RA_OF_ASC_NODE":"103.8158","MEAN_MOTION_DOT":"-0.00880518","REV_AT_EPOCH":"222","FILE":"3219026","OBJECT_ID":"2021-104BC","ARG_OF_PERICENTER":"59.4702","LAUNCH_DATE":"2021-11-13","MEAN_ANOMALY":"324.2643","COUNTRY_CODE":"US","BSTAR":"-0.00224480000000","EPHEMERIS_TYPE":"0","CENTER_NAME":"EARTH","INCLINATION":"53.2175","SITE":"AFETR","TLE_LINE1":"1 49458U 21104BC  21323.58334491 -.00880518  24464-3 -22448-2 0  9993","TLE_LINE2":"2 49458  53.2175 103.8158 0047553  59.4702 324.2643 15.92604940  2222","PERIAPSIS":"263.266","RCS_SIZE":null,"DECAY_DATE":null,"ECCENTRICITY":"0.00475530","MEAN_MOTION_DDOT":"0.0002446400000","EPOCH":"2021-11-19T14:00:01.000224","OBJECT_TYPE":"PAYLOAD","MEAN_MOTION":"15.92604940","MEAN_ELEMENT_THEORY":"SGP4","REF_FRAME":"TEME","GP_ID":"190048017","PERIOD":"90.418"},{"DECAY_DATE":null,"RCS_SIZE":null,"PERIAPSIS":"263.688","TLE_LINE2":"2 49459  53.2175 103.8147 0046712  59.0984 325.4626 15.92654855  2218","PERIOD":"90.415","GP_ID":"190048323","REF_FRAME":"TEME","MEAN_MOTION":"15.92654855","MEAN_ELEMENT_THEORY":"SGP4","OBJECT_TYPE":"PAYLOAD","EPOCH":"2021-11-19T14:00:01.000224","MEAN_MOTION_DDOT":"0.0002448500000","ECCENTRICITY":"0.00467120","MEAN_MOTION_DOT":"-0.00880703","RA_OF_ASC_NODE":"103.8147","CLASSIFICATION_TYPE":"U","APOAPSIS":"326.030","OBJECT_NAME":"STARLINK-3141","TIME_SYSTEM":"UTC","ELEMENT_SET_NO":"999","SEMIMAJOR_AXIS":"6672.994","NORAD_CAT_ID":"49459","TLE_LINE1":"1 49459U 21104BD  21323.58334491 -.00880703  24485-3 -22478-2 0  9996","SITE":"AFETR","INCLINATION":"53.2175","CENTER_NAME":"EARTH","BSTAR":"-0.00224780000000","EPHEMERIS_TYPE":"0","LAUNCH_DATE":"2021-11-13","MEAN_ANOMALY":"325.4626","COUNTRY_CODE":"US","ARG_OF_PERICENTER":"59.0984","OBJECT_ID":"2021-104BD","FILE":"3219026","REV_AT_EPOCH":"221"},{"ECCENTRICITY":"0.00479880","GP_ID":"190048626","PERIOD":"90.414","MEAN_MOTION_DDOT":"0.0002445200000","EPOCH":"2021-11-19T14:00:01.000224","OBJECT_TYPE":"PAYLOAD","MEAN_ELEMENT_THEORY":"SGP4","MEAN_MOTION":"15.92666555","REF_FRAME":"TEME","TLE_LINE2":"2 49460  53.2175 103.8133 0047988  59.5168 325.4999 15.92666555  2235","PERIAPSIS":"262.804","DECAY_DATE":null,"RCS_SIZE":null,"COUNTRY_CODE":"US","LAUNCH_DATE":"2021-11-13","MEAN_ANOMALY":"325.4999","EPHEMERIS_TYPE":"0","BSTAR":"-0.00223130000000","REV_AT_EPOCH":"223","FILE":"3219034","OBJECT_ID":"2021-104BE","ARG_OF_PERICENTER":"59.5168","INCLINATION":"53.2175","SITE":"AFETR","TLE_LINE1":"1 49460U 21104BE  21323.58334491 -.00879986  24452-3 -22313-2 0  9991","CENTER_NAME":"EARTH","ELEMENT_SET_NO":"999","TIME_SYSTEM":"UTC","NORAD_CAT_ID":"49460","SEMIMAJOR_AXIS":"6672.961","RA_OF_ASC_NODE":"103.8133","MEAN_MOTION_DOT":"-0.00879986","OBJECT_NAME":"STARLINK-3140","APOAPSIS":"326.848","CLASSIFICATION_TYPE":"U"}];
